[
    {
        "Altitude(m)": 554605.4516140722,
        "Argument of Periapsis(deg)": 0.019868973332140504,
        "Eccentricity": 0.0,
        "Inclination(deg)": 53.0,
        "Latitude(deg)": -2.50696429470027,
        "Longitude(deg)": -125.50008568880925,
        "Mean Anomaly(deg)": 183.00207860273272,
        "RAAN(deg)": 154.97043010558406,
        "Satellite Name": "Starlink Shell 1 691",
        "Satellite Number": 691,
        "Semi-Major Axis(m)": 6931778.249405717,
        "Time(s)": 570
    },
    {
        "Altitude(m)": 554685.9814387794,
        "Argument of Periapsis(deg)": 0.02021755181165174,
        "Eccentricity": 0.0,
        "Inclination(deg)": 53.0,
        "Latitude(deg)": -3.0105077088437358,
        "Longitude(deg)": -125.16389027821445,
        "Mean Anomaly(deg)": 183.6289098062894,
        "RAAN(deg)": 154.96991133550657,
        "Satellite Name": "Starlink Shell 1 691",
        "Satellite Number": 691,
        "Semi-Major Axis(m)": 6931778.249405717,
        "Time(s)": 580
    },
    {
        "Altitude(m)": 554769.235564795,
        "Argument of Periapsis(deg)": 0.020566130291162974,
        "Eccentricity": 0.0,
        "Inclination(deg)": 53.0,
        "Latitude(deg)": -3.5139044116559033,
        "Longitude(deg)": -124.8273562777939,
        "Mean Anomaly(deg)": 184.25574100984622,
        "RAAN(deg)": 154.9693925654291,
        "Satellite Name": "Starlink Shell 1 691",
        "Satellite Number": 691,
        "Semi-Major Axis(m)": 6931778.249405717,
        "Time(s)": 590
    },
    {
        "Altitude(m)": 554855.1972815747,
        "Argument of Periapsis(deg)": 0.020914708770674213,
        "Eccentricity": 0.0,
        "Inclination(deg)": 53.0,
        "Latitude(deg)": -4.017131289801931,
        "Longitude(deg)": -124.49042567179772,
        "Mean Anomaly(deg)": 184.8825722134029,
        "RAAN(deg)": 154.96887379535164,
        "Satellite Name": "Starlink Shell 1 691",
        "Satellite Number": 691,
        "Semi-Major Axis(m)": 6931778.249405717,
        "Time(s)": 600
    },
    {
        "Altitude(m)": 554943.8485486017,
        "Argument of Periapsis(deg)": 0.021263287250185448,
        "Eccentricity": 0.0,
        "Inclination(deg)": 53.0,
        "Latitude(deg)": -4.520165151702208,
        "Longitude(deg)": -124.1530402738974,
        "Mean Anomaly(deg)": 185.50940341695963,
        "RAAN(deg)": 154.96835502527415,
        "Satellite Name": "Starlink Shell 1 691",
        "Satellite Number": 691,
        "Semi-Major Axis(m)": 6931778.249405717,
        "Time(s)": 610
    },
    {
        "Altitude(m)": 555035.1700016642,
        "Argument of Periapsis(deg)": 0.021611865729696686,
        "Eccentricity": 0.0,
        "Inclination(deg)": 53.0,
        "Latitude(deg)": -5.022982715559377,
        "Longitude(deg)": -123.81514119750173,
        "Mean Anomaly(deg)": 186.13623462051632,
        "RAAN(deg)": 154.9678362551967,
        "Satellite Name": "Starlink Shell 1 691",
        "Satellite Number": 691,
        "Semi-Major Axis(m)": 6931778.249405717,
        "Time(s)": 620
    },
    {
        "Altitude(m)": 555129.1409597527,
        "Argument of Periapsis(deg)": 0.02196044420920792,
        "Eccentricity": 0.0,
        "Inclination(deg)": 53.0,
        "Latitude(deg)": -5.525560597294704,
        "Longitude(deg)": -123.47667000699192,
        "Mean Anomaly(deg)": 186.763065824073,
        "RAAN(deg)": 154.96731748511922,
        "Satellite Name": "Starlink Shell 1 691",
        "Satellite Number": 691,
        "Semi-Major Axis(m)": 6931778.249405717,
        "Time(s)": 630
    },
    {
        "Altitude(m)": 555225.7394326618,
        "Argument of Periapsis(deg)": 0.02230902268871916,
        "Eccentricity": 0.0,
        "Inclination(deg)": 53.0,
        "Latitude(deg)": -6.027875298389909,
        "Longitude(deg)": -123.13756734744187,
        "Mean Anomaly(deg)": 187.38989702762981,
        "RAAN(deg)": 154.96679871504173,
        "Satellite Name": "Starlink Shell 1 691",
        "Satellite Number": 691,
        "Semi-Major Axis(m)": 6931778.249405717,
        "Time(s)": 640
    },
    {
        "Altitude(m)": 555324.9421292177,
        "Argument of Periapsis(deg)": 0.022657601168230398,
        "Eccentricity": 0.0,
        "Inclination(deg)": 53.0,
        "Latitude(deg)": -6.529903193613457,
        "Longitude(deg)": -122.79777409573238,
        "Mean Anomaly(deg)": 188.01672823118648,
        "RAAN(deg)": 154.96627994496427,
        "Satellite Name": "Starlink Shell 1 691",
        "Satellite Number": 691,
        "Semi-Major Axis(m)": 6931778.249405717,
        "Time(s)": 650
    },
    {
        "Altitude(m)": 555426.7244661401,
        "Argument of Periapsis(deg)": 0.023006179647741636,
        "Eccentricity": 0.0,
        "Inclination(deg)": 53.0,
        "Latitude(deg)": -7.0316205186287535,
        "Longitude(deg)": -122.45723083062471,
        "Mean Anomaly(deg)": 188.6435594347432,
        "RAAN(deg)": 154.9657611748868,
        "Satellite Name": "Starlink Shell 1 691",
        "Satellite Number": 691,
        "Semi-Major Axis(m)": 6931778.249405717,
        "Time(s)": 660
    },
    {
        "Altitude(m)": 555531.0605776164,
        "Argument of Periapsis(deg)": 0.023354758127252868,
        "Eccentricity": 0.0,
        "Inclination(deg)": 53.0,
        "Latitude(deg)": -7.533003357466819,
        "Longitude(deg)": -122.11587730276267,
        "Mean Anomaly(deg)": 189.27039063829986,
        "RAAN(deg)": 154.96524240480932,
        "Satellite Name": "Starlink Shell 1 691",
        "Satellite Number": 691,
        "Semi-Major Axis(m)": 6931778.249405717,
        "Time(s)": 670
    },
    {
        "Altitude(m)": 555637.9233254325,
        "Argument of Periapsis(deg)": 0.023703336606764106,
        "Eccentricity": 0.0,
        "Inclination(deg)": 53.0,
        "Latitude(deg)": -8.034027629853215,
        "Longitude(deg)": -121.77365341747057,
        "Mean Anomaly(deg)": 189.8972218418566,
        "RAAN(deg)": 154.96472363473185,
        "Satellite Name": "Starlink Shell 1 691",
        "Satellite Number": 691,
        "Semi-Major Axis(m)": 6931778.249405717,
        "Time(s)": 680
    },
    {
        "Altitude(m)": 555747.284309794,
        "Argument of Periapsis(deg)": 0.024051915086275345,
        "Eccentricity": 0.0,
        "Inclination(deg)": 53.0,
        "Latitude(deg)": -8.53466907837867,
        "Longitude(deg)": -121.4304987045986,
        "Mean Anomaly(deg)": 190.52405304541338,
        "RAAN(deg)": 154.9642048646544,
        "Satellite Name": "Starlink Shell 1 691",
        "Satellite Number": 691,
        "Semi-Major Axis(m)": 6931778.249405717,
        "Time(s)": 690
    },
    {
        "Altitude(m)": 555859.1138807553,
        "Argument of Periapsis(deg)": 0.024400493565786583,
        "Eccentricity": 0.0,
        "Inclination(deg)": 53.0,
        "Latitude(deg)": -9.034903255501657,
        "Longitude(deg)": -121.0863517882856,
        "Mean Anomaly(deg)": 191.15088424897004,
        "RAAN(deg)": 154.9636860945769,
        "Satellite Name": "Starlink Shell 1 691",
        "Satellite Number": 691,
        "Semi-Major Axis(m)": 6931778.249405717,
        "Time(s)": 700
    },
    {
        "Altitude(m)": 555973.3811502827,
        "Argument of Periapsis(deg)": 0.024749072045297815,
        "Eccentricity": 0.0,
        "Inclination(deg)": 53.0,
        "Latitude(deg)": -9.534705510368394,
        "Longitude(deg)": -120.74115136951201,
        "Mean Anomaly(deg)": 191.77771545252676,
        "RAAN(deg)": 154.96316732449944,
        "Satellite Name": "Starlink Shell 1 691",
        "Satellite Number": 691,
        "Semi-Major Axis(m)": 6931778.249405717,
        "Time(s)": 710
    },
    {
        "Altitude(m)": 556090.0540049204,
        "Argument of Periapsis(deg)": 0.025097650524809053,
        "Eccentricity": 0.0,
        "Inclination(deg)": 53.0,
        "Latitude(deg)": -10.034050975441529,
        "Longitude(deg)": -120.39483569569562,
        "Mean Anomaly(deg)": 192.4045466560834,
        "RAAN(deg)": 154.96264855442197,
        "Satellite Name": "Starlink Shell 1 691",
        "Satellite Number": 691,
        "Semi-Major Axis(m)": 6931778.249405717,
        "Time(s)": 720
    },
    {
        "Altitude(m)": 556209.0991190694,
        "Argument of Periapsis(deg)": 0.02544622900432029,
        "Eccentricity": 0.0,
        "Inclination(deg)": 53.0,
        "Latitude(deg)": -10.53291455292509,
        "Longitude(deg)": -120.0473420302031,
        "Mean Anomaly(deg)": 193.0313778596402,
        "RAAN(deg)": 154.96212978434448,
        "Satellite Name": "Starlink Shell 1 691",
        "Satellite Number": 691,
        "Semi-Major Axis(m)": 6931778.249405717,
        "Time(s)": 730
    },
    {
        "Altitude(m)": 556330.4819688986,
        "Argument of Periapsis(deg)": 0.02579480748383153,
        "Eccentricity": 0.0,
        "Inclination(deg)": 53.0,
        "Latitude(deg)": -11.03127090097042,
        "Longitude(deg)": -119.69860763465375,
        "Mean Anomaly(deg)": 193.65820906319695,
        "RAAN(deg)": 154.96161101426702,
        "Satellite Name": "Starlink Shell 1 691",
        "Satellite Number": 691,
        "Semi-Major Axis(m)": 6931778.249405717,
        "Time(s)": 740
    },
    {
        "Altitude(m)": 556454.166846776,
        "Argument of Periapsis(deg)": 0.026143385963342765,
        "Eccentricity": 0.0,
        "Inclination(deg)": 53.0,
        "Latitude(deg)": -11.529094419655664,
        "Longitude(deg)": -119.34856923827054,
        "Mean Anomaly(deg)": 194.28504026675364,
        "RAAN(deg)": 154.96109224418956,
        "Satellite Name": "Starlink Shell 1 691",
        "Satellite Number": 691,
        "Semi-Major Axis(m)": 6931778.249405717,
        "Time(s)": 750
    }
]